     2.100          NAVIGATION                              RINEX VERSION / TYPE
fic2rin                                 02/28/2013 00:26:21 PGM / RUN BY / DATE
                                                            END OF HEADER
28 13  2 27 12  0  0.0  .236427411437D-03  .341060513165D-11  .000000000000D+00
     .152000000000D+03  .750312500000D+02  .430125059292D-08  .391635963038D+00
     .390782952309D-05  .186574325198D-01  .663660466671D-05  .515363526726D+04
     .302400000000D+06 -.316649675369D-06 -.187652205551D+01  .558793544769D-08
     .981971162058D+00  .265468750000D+03 -.177887807273D+01 -.837070581635D-08
     .446090010011D-09  .100000000000D+01  .172900000000D+04  .000000000000D+00
     .240000000000D+01  .000000000000D+00 -.107102096081D-07  .152000000000D+03
     .295206000000D+06  .400000000000D+01
29 13  2 27 12  0  0.0  .411876011640D-03  .363797880709D-11  .000000000000D+00
     .460000000000D+02 -.688750000000D+02  .489591822036D-08  .250466219273D+01
    -.377558171749D-05  .194051605649D-02  .452995300293D-05  .515368647766D+04
     .302400000000D+06  .614672899246D-07 -.835846261380D+00  .298023223877D-07
     .965327636697D+00  .295656250000D+03 -.109755724406D+01 -.839820696189D-08
    -.349657421778D-09  .100000000000D+01  .172900000000D+04  .000000000000D+00
     .240000000000D+01  .000000000000D+00 -.977888703346D-08  .460000000000D+02
     .295206000000D+06  .400000000000D+01
31 13  2 27 12  0  0.0  .304303131998D-03  .170530256582D-11  .000000000000D+00
     .390000000000D+02 -.320312500000D+02  .361300763913D-08  .306138780270D+01
    -.154413282871D-05  .807548011653D-02  .136811286211D-04  .515355490303D+04
     .302400000000D+06  .409781932831D-07 -.295490149539D+01  .316649675369D-07
     .981028739990D+00  .127250000000D+03 -.767398909428D+00 -.746781106431D-08
    -.189650756858D-09  .100000000000D+01  .172900000000D+04  .000000000000D+00
     .240000000000D+01  .000000000000D+00 -.130385160446D-07  .390000000000D+02
     .295206000000D+06  .400000000000D+01
32 13  2 27 12  0  0.0 -.539063941687D-03 -.318323145621D-11  .000000000000D+00
     .720000000000D+02  .872187500000D+02  .492056210402D-08 -.261292297871D+01
     .447034835815D-05  .116060803412D-01  .634230673313D-05  .515374734879D+04
     .302400000000D+06 -.234693288803D-06  .129735700991D+01  .115483999252D-06
     .949502769070D+00  .250468750000D+03 -.392305552347D+00 -.825070081766D-08
     .367158150754D-09  .100000000000D+01  .172900000000D+04  .000000000000D+00
     .240000000000D+01  .000000000000D+00 -.325962901115D-08  .720000000000D+02
     .295206000000D+06  .400000000000D+01
30 13  2 27 11 59 28.0 -.216432847083D-03  .670752342558D-11  .000000000000D+00
     .440000000000D+02  .783437500000D+02  .457376194412D-08 -.399532415935D+00
     .414624810219D-05  .108396210708D-01  .804848968983D-05  .515362590790D+04
     .302368000000D+06 -.111758708954D-06 -.203190006811D+01  .558793544769D-08
     .962823583227D+00  .228000000000D+03  .161246023369D+01 -.836499129261D-08
     .642169606085D-09  .100000000000D+01  .172900000000D+04  .000000000000D+00
     .340000000000D+01  .000000000000D+00 -.419095158577D-08  .440000000000D+02
     .296406000000D+06  .400000000000D+01
12 13  2 27 11 59 44.0  .120123848319D-03  .204636307899D-11  .000000000000D+00
     .800000000000D+01  .879062500000D+02  .416053044565D-08  .287225603633D+01
     .462681055069D-05  .433489237912D-02  .683777034283D-05  .515361372566D+04
     .302384000000D+06 -.279396772385D-07 -.190122139675D+01 -.931322574615D-08
     .982837736211D+00  .257906250000D+03  .158418667345D+00 -.799711882638D-08
     .660384650529D-09  .100000000000D+01  .172900000000D+04  .000000000000D+00
     .240000000000D+01  .000000000000D+00 -.121071934700D-07  .800000000000D+01
     .296706000000D+06  .400000000000D+01
23 13  2 27 11 59 44.0  .109869521111D-03 -.363797880709D-11  .000000000000D+00
     .200000000000D+01 -.562187500000D+02  .489056085435D-08 -.152246221273D+01
    -.305846333504D-05  .821241445374D-02  .398978590965D-05  .515374218750D+04
     .302384000000D+06  .186264514923D-07  .227098906639D+01 -.147148966789D-06
     .956596856750D+00  .299093750000D+03 -.291517106734D+01 -.839392106908D-08
    -.316084594764D-09  .100000000000D+01  .172900000000D+04  .000000000000D+00
     .240000000000D+01  .000000000000D+00 -.200234353542D-07  .200000000000D+01
     .301956000000D+06  .400000000000D+01
30 13  2 27 13 59 28.0 -.216384418309D-03  .670752342558D-11  .000000000000D+00
     .450000000000D+02  .806250000000D+02  .456411868529D-08  .650695408167D+00
     .419467687607D-05  .108405359788D-01  .843964517117D-05  .515362759399D+04
     .309568000000D+06 -.651925802231D-07 -.203195991609D+01 -.912696123123D-07
     .962827854948D+00  .220500000000D+03  .161244167365D+01 -.838034907518D-08
     .557880380814D-09  .100000000000D+01  .172900000000D+04  .000000000000D+00
     .485000000000D+01  .000000000000D+00 -.419095158577D-08  .450000000000D+02
     .302406000000D+06  .400000000000D+01
12 13  2 27 13 59 44.0  .120138749480D-03  .204636307899D-11  .000000000000D+00
     .900000000000D+01  .835000000000D+02  .410445668138D-08 -.236079177024D+01
     .433251261711D-05  .433517666534D-02  .692531466484D-05  .515361304092D+04
     .309584000000D+06 -.167638063431D-07 -.190127862610D+01  .484287738800D-07
     .982842657467D+00  .259031250000D+03  .158495704611D+00 -.794283085079D-08
     .638240871008D-09  .100000000000D+01  .172900000000D+04  .000000000000D+00
     .240000000000D+01  .000000000000D+00 -.121071934700D-07  .900000000000D+01
     .302406000000D+06  .400000000000D+01
23 13  2 27 13 59 44.0  .109842978418D-03 -.363797880709D-11  .000000000000D+00
     .800000000000D+01 -.500937500000D+02  .504449583779D-08 -.472422863680D+00
    -.276789069176D-05  .821212620940D-02  .379979610443D-05  .515374052048D+04
     .309584000000D+06  .182539224625D-06  .227092902970D+01  .819563865662D-07
     .956593298933D+00  .302312500000D+03 -.291506805743D+01 -.860571560545D-08
    -.471448209139D-09  .100000000000D+01  .172900000000D+04  .000000000000D+00
     .240000000000D+01  .000000000000D+00 -.200234353542D-07  .800000000000D+01
     .302406000000D+06  .400000000000D+01
 1 13  2 27 14  0  0.0  .357488170266D-05  .284217094304D-11  .000000000000D+00
     .740000000000D+02 -.360625000000D+02  .431267964042D-08 -.157740964254D+01
    -.190548598766D-05  .162616209127D-02  .133495777845D-04  .515371265793D+04
     .309600000000D+06 -.558793544769D-08  .163561586574D+00 -.763684511185D-07
     .960719765126D+00  .122218750000D+03  .385834812597D+00 -.786247036059D-08
    -.141077305007D-09  .100000000000D+01  .172900000000D+04  .000000000000D+00
     .240000000000D+01  .000000000000D+00  .838190317154D-08  .740000000000D+02
     .302406000000D+06  .400000000000D+01
 2 13  2 27 14  0  0.0  .420263502747D-03  .159161572810D-11  .000000000000D+00
     .920000000000D+02 -.286875000000D+02  .493341978245D-08 -.694737994992D+00
    -.141188502312D-05  .120792787056D-01  .119786709547D-04  .515362154198D+04
     .309600000000D+06  .214204192162D-06  .143866125904D+00  .156462192535D-06
     .939234760658D+00  .137406250000D+03 -.265789848156D+01 -.823212861549D-08
    -.137148569931D-09  .100000000000D+01  .172900000000D+04  .000000000000D+00
     .240000000000D+01  .000000000000D+00 -.176951289177D-07  .920000000000D+02
     .302406000000D+06  .400000000000D+01
 3 13  2 27 14  0  0.0  .173973385245D-03  .500222085975D-11  .000000000000D+00
     .121000000000D+03 -.366562500000D+02  .577952645476D-08 -.531120744385D+00
    -.175461173058D-05  .160070997663D-01  .317767262459D-05  .515367136192D+04
     .309600000000D+06 -.134110450745D-06 -.102430236002D+01  .184401869774D-06
     .933441899110D+00  .307437500000D+03  .127138338949D+01 -.918966850087D-08
    -.775032283206D-10  .100000000000D+01  .172900000000D+04  .000000000000D+00
     .340000000000D+01  .000000000000D+00 -.465661287308D-08  .121000000000D+03
     .302406000000D+06  .400000000000D+01
 4 13  2 27 14  0  0.0  .146863050759D-03  .110276232590D-10  .000000000000D+00
     .660000000000D+02 -.363437500000D+02  .481520057243D-08  .255113177820D+01
    -.194460153580D-05  .103491961490D-01  .125672668219D-04  .515376332664D+04
     .309600000000D+06 -.242143869400D-07  .160398686003D+00 -.184401869774D-06
     .938269957407D+00  .124656250000D+03  .960826252396D+00 -.795461705602D-08
    -.128219626576D-09  .100000000000D+01  .172900000000D+04  .000000000000D+00
     .240000000000D+01  .000000000000D+00 -.605359673500D-08  .660000000000D+02
     .302406000000D+06  .400000000000D+01
 5 13  2 27 14  0  0.0 -.385673251003D-03 -.170530256582D-11  .000000000000D+00
     .130000000000D+02  .901562500000D+02  .509449792057D-08  .138026324436D+01
     .492483377457D-05  .307995337062D-02  .680796802044D-05  .515356667709D+04
     .309600000000D+06  .111758708954D-07  .120836115513D+01  .782310962677D-07
     .949010347919D+00  .242093750000D+03  .317972943867D+00 -.844392315186D-08
     .383587406527D-09  .100000000000D+01  .172900000000D+04  .000000000000D+00
     .240000000000D+01  .000000000000D+00 -.102445483208D-07  .130000000000D+02
     .302406000000D+06  .400000000000D+01
 6 13  2 27 14  0  0.0  .334550626576D-03 -.147792889038D-10  .000000000000D+00
     .880000000000D+02 -.513750000000D+02  .549022869006D-08  .134872363319D+01
    -.271759927273D-05  .779220776167D-02  .299327075481D-05  .515367953300D+04
     .309600000000D+06  .106170773506D-06 -.945485075226D+00  .117346644402D-06
     .940183255298D+00  .310125000000D+03 -.377056136713D+00 -.874643575273D-08
    -.288226291496D-09  .100000000000D+01  .172900000000D+04  .000000000000D+00
     .240000000000D+01  .000000000000D+00 -.512227416039D-08  .880000000000D+02
     .302406000000D+06  .400000000000D+01
